[{"OBJECT_NAME":"PRSC-EO1","OBJECT_ID":"2025-012A","EPOCH":"2026-03-09T23:07:33.699072","MEAN_MOTION":15.17765596,"ECCENTRICITY":0.00053607,"INCLINATION":97.4297,"RA_OF_ASC_NODE":143.3271,"ARG_OF_PERICENTER":221.9324,"MEAN_ANOMALY":138.15,"EPHEMERIS_TYPE":0,"CLASSIFICATION_TYPE":"U","NORAD_CAT_ID":62725,"ELEMENT_SET_NO":999,"REV_AT_EPOCH":6314,"BSTAR":0.0005131815,"MEAN_MOTION_DOT":0.00010308,"MEAN_MOTION_DDOT":0},{"OBJECT_NAME":"ZHANGHENG 1-02 (CSES-2)","OBJECT_ID":"2025-128A","EPOCH":"2026-03-07T17:41:43.439712","MEAN_MOTION":15.21023059,"ECCENTRICITY":0.00142277,"INCLINATION":97.3434,"RA_OF_ASC_NODE":195.9568,"ARG_OF_PERICENTER":108.2865,"MEAN_ANOMALY":251.992,"EPHEMERIS_TYPE":0,"CLASSIFICATION_TYPE":"U","NORAD_CAT_ID":64393,"ELEMENT_SET_NO":999,"REV_AT_EPOCH":4050,"BSTAR":1.646985e-6,"MEAN_MOTION_DOT":-3.1e-7,"MEAN_MOTION_DDOT":0}]
